IRIDIUM 64 [+]          
1 25287U 98021C   17294.22826502  .00000110  00000-0  32239-4 0  9999
2 25287  86.3996 171.3041 0002063  87.9904 272.1528 14.34218137 23064
IRIDIUM 65 [+]          
1 25288U 98021D   17294.23462368  .00000172  00000-0  54434-4 0  9996
2 25288  86.3996 171.2026 0001919  81.2681 278.8732 14.34218501 23082
IRIDIUM 66 [+]          
1 25289U 98021E   17294.52003993  .00000183  00000-0  58412-4 0  9996
2 25289  86.3993 170.9858 0002001  80.5271 279.6151 14.34219487 23111
IRIDIUM 67 [+]          
1 25290U 98021F   17294.31706114  .00000033  00000-0  48985-5 0  9999
2 25290  86.3996 171.2087 0001975  82.8703 277.2717 14.34217962 23105
IRIDIUM 68 [+]          
1 25291U 98021G   17294.25365611  .00000178  00000-0  56514-4 0  9992
2 25291  86.3997 171.3561 0001985  84.3525 275.7897 14.34218432 23076
IRIDIUM 69 [-]          
1 25319U 98026A   17294.27916345  .00000108  00000-0  28867-4 0  9999
2 25319  86.4049 192.6923 0001483 146.2268 213.9025 14.38697711 21169
IRIDIUM 71 [-]          
1 25320U 98026B   17294.30278977  .00000162  00000-0  45963-4 0  9993
2 25320  86.4029 188.5164 0000911   8.9711 351.1504 14.39111130 21605
IRIDIUM 70 [+]          
1 25342U 98032A   17294.30547616  .00000170  00000-0  53635-4 0  9997
2 25342  86.4003 171.5824 0001991  79.0423  57.6739 14.34218265 17171
IRIDIUM 72 [+]          
1 25343U 98032B   17294.26632724  .00000175  00000-0  55389-4 0  9991
2 25343  86.3996 171.2025 0001980  81.8903 278.2517 14.34219391 17170
IRIDIUM 73 [-]          
1 25344U 98032C   17294.51348769  .00000152  00000-0  34772-4 0  9991
2 25344  86.4429 149.6051 0002257  71.7188 288.4262 14.49068350 25848
IRIDIUM 75 [+]          
1 25346U 98032E   17294.27267366  .00000175  00000-0  55271-4 0  9991
2 25346  86.3999 171.4565 0002009  82.4140 277.7284 14.34219097 17741
IRIDIUM 3 [+]           
1 25431U 98048A   17294.48996514  .00000221  00000-0  71884-4 0  9990
2 25431  86.4017 202.9179 0001988  77.3893  44.5910 14.34224409  3724
IRIDIUM 76 [+]          
1 25432U 98048B   17294.34583855  .00000036  00000-0  57071-5 0  9993
2 25432  86.4015 202.7281 0002309  77.0807 283.0646 14.34216674  3670
IRIDIUM 82 [-]          
1 25467U 98051A   17294.45106370  .00001189  00000-0  89140-4 0  9991
2 25467  86.3988 322.9270 0180420 301.5303  56.8409 14.89527181  5635
IRIDIUM 81 [+]          
1 25468U 98051B   17294.48811343  .00000138  00000-0  38473-4 0  9994
2 25468  86.4224 329.0274 0002512  91.5197 268.6289 14.38609960  1000
IRIDIUM 80 [+]          
1 25469U 98051C   17294.47428850  .00000111  00000-0  32746-4 0  9999
2 25469  86.3953 329.3090 0001921 110.5783  23.3662 14.34226110   934
IRIDIUM 2 [-]           
1 25527U 98066A   17294.46958376  .00001578  00000-0  78181-4 0  9991
2 25527  85.5277 317.6981 0008816   2.6891 357.4395 15.16895116 37011
IRIDIUM 86 [+]          
1 25528U 98066B   17294.46389777 -.00000041  00000-0 -21705-4 0  9991
2 25528  86.3909 296.9904 0002020  82.6404 277.5021 14.34216884997466
IRIDIUM 84 [+]          
1 25530U 98066D   17294.42583734 -.00000028  00000-0 -17165-4 0  9999
2 25530  86.3910 297.1734 0002195  85.4155 274.7292 14.34216961995094
IRIDIUM 83 [+]          
1 25531U 98066E   17294.45755230 -.00000034  00000-0 -19266-4 0  9996
2 25531  86.3914 297.2907 0002196  87.4372 272.7075 14.34217072992454
IRIDIUM 20 [+]          
1 25577U 98074A   17294.30778853  .00000039  00000-0  69445-5 0  9993
2 25577  86.4014 202.6639 0002082  81.3326 278.8105 14.34217653986510
IRIDIUM 11 [+]          
1 25578U 98074B   17294.48430390  .00000168  00000-0  52964-4 0  9994
2 25578  86.4013 202.7905 0002028  83.3116  42.1985 14.34216189995506
IRIDIUM 14 [+]          
1 25777U 99032A   17294.22193518  .00000178  00000-0  56423-4 0  9995
2 25777  86.3998 171.3070 0001959  80.2375 279.9042 14.34218777972747
IRIDIUM 21 [+]          
1 25778U 99032B   17294.32975279  .00000173  00000-0  54728-4 0  9990
2 25778  86.3996 171.2791 0002163  82.8000 277.3442 14.34219482966198
IRIDIUM 91 [+]          
1 27372U 02005A   17294.46335503  .00000156  00000-0  48542-4 0  9999
2 27372  86.3986 234.3606 0002347  71.6806  59.1556 14.34216583829727
IRIDIUM 90 [S]          
1 27373U 02005B   17294.47089964 -.00000027  00000-0 -14181-4 0  9999
2 27373  86.4424 297.2746 0002142  82.4999 277.6445 14.42949081829566
IRIDIUM 94 [+]          
1 27374U 02005C   17294.36361369  .00000220  00000-0  71560-4 0  9997
2 27374  86.4014 202.9739 0002411  65.4706  59.1408 14.34224900834030
IRIDIUM 95 [+]          
1 27375U 02005D   17294.40631761  .00000153  00000-0  47461-4 0  9997
2 27375  86.3982 234.4027 0002964  72.4673 287.6846 14.34216698829008
IRIDIUM 96 [+]          
1 27376U 02005E   17294.45409966 -.00000041  00000-0 -21721-4 0  9992
2 27376  86.3960 266.4470 0003303  83.8211 276.3361 14.34215496834215
IRIDIUM 97 [+]          
1 27450U 02031A   17294.42237442 -.00000030  00000-0 -17751-4 0  9995
2 27450  86.3928 266.0912 0002131  88.6572 271.4868 14.34215970808328
IRIDIUM 98 [+]          
1 27451U 02031B   17294.45472649  .00000057  00000-0  13320-4 0  9994
2 27451  86.3947 329.4062 0001721  91.5566 268.5827 14.34218524809400
